OBJECT_NAME,OBJECT_ID,EPOCH,MEAN_MOTION,ECCENTRICITY,INCLINATION,RA_OF_ASC_NODE,ARG_OF_PERICENTER,MEAN_ANOMALY,EPHEMERIS_TYPE,CLASSIFICATION_TYPE,NORAD_CAT_ID,ELEMENT_SET_NO,REV_AT_EPOCH,BSTAR,MEAN_MOTION_DOT,MEAN_MOTION_DDOT
SNIPE 2,2023-072C,2026-07-07T04:11:34.226016,15.47921782,.000277,97.5230,38.0088,274.6839,85.4094,0,U,56745,999,17333,.41359E-3,.21492E-3,0
2023-072G,2023-072G,2026-07-07T04:34:56.811648,15.51778177,.0001682,97.4884,36.8529,245.0205,115.0872,0,U,56749,999,17356,.40775E-3,.24277E-3,0
GEISAT PRECURSOR,2023-084C,2026-07-07T04:03:54.007776,15.34933211,.0004074,97.6247,329.7867,267.5645,92.5131,0,U,56934,999,17059,.16578E-3,.5532E-4,0
BLACKJACK ACES-3,2023-084U,2026-07-07T00:05:52.482624,15.18671702,.0000913,97.6235,323.3500,320.8100,39.3067,0,U,56950,999,17017,.20219E-3,.4121E-4,0
BLACKJACK ACES-2,2023-084Z,2026-07-06T22:39:34.610112,15.18665792,.0001038,97.6231,323.3739,143.4011,216.7293,0,U,56955,999,17017,.23335E-3,.4766E-4,0
BLACKJACK ACES-1,2023-084AA,2026-07-07T03:06:35.000064,15.18714150,.0001545,97.6222,323.3329,126.4786,233.6590,0,U,56956,999,11992,.26588E-3,.5448E-4,0
ION SCV-011,2023-084AB,2026-07-07T02:13:40.278720,15.29042351,.0006489,98.1388,17.2191,338.1199,21.9761,0,U,56957,999,16885,.13202E-3,.3635E-4,0
GHOST-3,2023-084AC,2026-07-06T22:35:23.256096,15.48576926,.0006289,97.6237,337.5844,214.1773,145.9073,0,U,56958,999,17107,.27389E-3,.14522E-3,0
AFR-1,2023-084AJ,2026-07-07T04:44:25.543104,15.28729604,.0008974,97.6298,325.3751,267.5215,92.4997,0,U,56964,999,17028,.12847E-3,.3511E-4,0
METEOR-M2 3,2023-091A,2026-07-07T04:38:36.335904,14.24048492,.0005103,98.6077,242.7614,108.1933,251.9802,0,U,57166,999,15736,.99571E-5,-.2E-6,0
UMKA 1 (RS40S),2023-091G,2026-07-07T03:50:43.407168,15.21060637,.0013731,97.5037,246.7822,55.5418,304.7112,0,U,57172,999,16704,.21194E-3,.4648E-4,0
2023-091H,2023-091H,2026-07-07T03:29:24.215424,15.29096993,.0010368,97.5035,251.5034,51.5495,308.6674,0,U,57173,999,16735,.31848E-3,.8934E-4,0
2023-091J,2023-091J,2026-07-07T03:33:31.072320,15.14074454,.0014779,97.5042,240.9604,81.2374,279.0531,0,U,57174,999,16665,.18274E-3,.3266E-4,0
CUBEBEL 2 (EU11S),2023-091K,2026-07-07T03:20:18.904416,15.29687739,.0010337,97.5037,251.5396,52.8845,307.3338,0,U,57175,999,16735,.35765E-3,.10229E-3,0
SITRO-AIS 5 (KATYS),2023-091L,2026-07-07T03:39:30.116160,15.29940382,.0011515,97.5046,252.2466,39.9737,320.2349,0,U,57176,999,16739,.3139E-3,.904E-4,0
ZORKIY-2M 1,2023-091M,2026-07-07T03:29:13.157088,15.21180063,.0014154,97.5078,247.0491,52.7044,307.5479,0,U,57177,999,16703,.22519E-3,.4962E-4,0
CUBESX-HSE 3 (RS42S),2023-091N,2026-07-07T04:01:20.213184,15.31747800,.0010542,97.5077,254.0129,30.3133,329.8716,0,U,57178,999,16748,.31149E-3,.9486E-4,0
MONITOR-3 (RS58S),2023-091Q,2026-07-07T04:06:42.009120,15.28265624,.0011846,97.5070,251.7680,37.1438,323.0619,0,U,57180,999,16734,.28322E-3,.7739E-4,0
MONITOR-4 (RS57S),2023-091S,2026-07-07T03:34:56.673120,15.28351604,.0011856,97.5064,251.7181,37.5552,322.6514,0,U,57182,999,16734,.2872E-3,.7869E-4,0
MONITOR-2 (RS39S),2023-091U,2026-07-07T04:57:49.705056,15.19105902,.001213,97.5059,246.3613,49.7841,310.4452,0,U,57184,999,16699,.16812E-3,.3465E-4,0
SVYATOBOR 1 (RS60S),2023-091X,2026-07-07T02:44:41.720064,15.26972400,.000958,97.5076,252.0447,32.3071,327.8752,0,U,57187,999,16735,.26659E-3,.6992E-4,0
HORS 1,2023-091Y,2026-07-07T03:56:09.220704,15.27087980,.0009042,97.5052,251.8545,32.4196,327.7597,0,U,57188,999,16736,.25376E-3,.6675E-4,0
VIZARD-METEO (RS38S),2023-091Z,2026-07-07T03:26:04.934688,15.36696631,.0006461,97.5078,258.0359,11.5125,348.6265,0,U,57189,999,16775,.37102E-3,.13231E-3,0
SITRO-AIS 6 (CHIRKIN),2023-091AC,2026-07-07T02:41:47.814144,15.26335279,.0012005,97.5053,251.2183,43.7593,316.4595,0,U,57192,999,16732,.3043E-3,.7846E-4,0
SITRO-AIS 8 (ANOKHIN),2023-091AD,2026-07-07T04:47:01.350816,15.32711925,.0010345,97.5043,253.9653,35.9517,324.2418,0,U,57193,999,16751,.34631E-3,.10881E-3,0
SITRO-AIS 7 (FARTUSHNIY),2023-091AE,2026-07-07T02:52:16.673088,15.26013248,.001194,97.5050,251.0402,44.8521,315.3680,0,U,57194,999,16731,.31113E-3,.7946E-4,0
AVION KALUGA 650,2023-091AF,2026-07-07T04:03:16.000416,15.20576289,.0011184,97.5076,247.6658,48.4298,311.7894,0,U,57195,999,16706,.20743E-3,.448E-4,0
HORS 2,2023-091AG,2026-07-07T03:34:46.386336,15.32423756,.0007717,97.5075,255.4564,24.3536,335.8068,0,U,57196,999,16758,.32522E-3,.10113E-3,0
A-SEANSAT-PG1,2023-091AH,2026-07-07T04:32:50.906112,15.37689971,.0006488,97.5066,258.2061,19.9061,340.2435,0,U,57197,999,16778,.35731E-3,.13154E-3,0
SITRO-AIS 10 (BURDAEV),2023-091AK,2026-07-07T03:29:19.936032,15.39411003,.0005639,97.5067,259.1741,13.8654,346.2745,0,U,57199,999,16783,.40703E-3,.15865E-3,0
