SNIPE 2                 
1 56745U 23072C   26188.17470169  .00021492  00000+0  41359-3 0  9993
2 56745  97.5230  38.0088 0002770 274.6839  85.4094 15.47921782173330
2023-072G               
1 56749U 23072G   26188.19093532  .00024277  00000+0  40775-3 0  9999
2 56749  97.4884  36.8529 0001682 245.0205 115.0872 15.51778177173566
GEISAT PRECURSOR        
1 56934U 23084C   26188.16937509  .00005532  00000+0  16578-3 0  9993
2 56934  97.6247 329.7867 0004074 267.5645  92.5131 15.34933211170591
BLACKJACK ACES-3        
1 56950U 23084U   26188.00407966  .00004121  00000+0  20219-3 0  9993
2 56950  97.6235 323.3500 0000913 320.8100  39.3067 15.18671702170174
BLACKJACK ACES-2        
1 56955U 23084Z   26187.94415058  .00004766  00000+0  23335-3 0  9998
2 56955  97.6231 323.3739 0001038 143.4011 216.7293 15.18665792170172
BLACKJACK ACES-1        
1 56956U 23084AA  26188.12957176  .00005448  00000+0  26588-3 0  9993
2 56956  97.6222 323.3329 0001545 126.4786 233.6590 15.18714150119928
ION SCV-011             
1 56957U 23084AB  26188.09282730  .00003635  00000+0  13202-3 0  9992
2 56957  98.1388  17.2191 0006489 338.1199  21.9761 15.29042351168859
GHOST-3                 
1 56958U 23084AC  26187.94124139  .00014522  00000+0  27389-3 0  9992
2 56958  97.6237 337.5844 0006289 214.1773 145.9073 15.48576926171071
AFR-1                   
1 56964U 23084AJ  26188.19751786  .00003511  00000+0  12847-3 0  9990
2 56964  97.6298 325.3751 0008974 267.5215  92.4997 15.28729604170287
METEOR-M2 3             
1 57166U 23091A   26188.19347611 -.00000020  00000+0  99571-5 0  9995
2 57166  98.6077 242.7614 0005103 108.1933 251.9802 14.24048492157361
UMKA 1 (RS40S)          
1 57172U 23091G   26188.16022462  .00004648  00000+0  21194-3 0  9996
2 57172  97.5037 246.7822 0013731  55.5418 304.7112 15.21060637167046
2023-091H               
1 57173U 23091H   26188.14541916  .00008934  00000+0  31848-3 0  9994
2 57173  97.5035 251.5034 0010368  51.5495 308.6674 15.29096993167350
2023-091J               
1 57174U 23091J   26188.14827630  .00003266  00000+0  18274-3 0  9996
2 57174  97.5042 240.9604 0014779  81.2374 279.0531 15.14074454166657
CUBEBEL 2 (EU11S)       
1 57175U 23091K   26188.13910769  .00010229  00000+0  35765-3 0  9993
2 57175  97.5037 251.5396 0010337  52.8845 307.3338 15.29687739167351
SITRO-AIS 5 (KATYS)     
1 57176U 23091L   26188.15243190  .00009040  00000+0  31390-3 0  9992
2 57176  97.5046 252.2466 0011515  39.9737 320.2349 15.29940382167399
ZORKIY-2M 1             
1 57177U 23091M   26188.14529117  .00004962  00000+0  22519-3 0  9999
2 57177  97.5078 247.0491 0014154  52.7044 307.5479 15.21180063167038
CUBESX-HSE 3 (RS42S)    
1 57178U 23091N   26188.16759506  .00009486  00000+0  31149-3 0  9994
2 57178  97.5077 254.0129 0010542  30.3133 329.8716 15.31747800167481
MONITOR-3 (RS58S)       
1 57180U 23091Q   26188.17131955  .00007739  00000+0  28322-3 0  9998
2 57180  97.5070 251.7680 0011846  37.1438 323.0619 15.28265624167342
MONITOR-4 (RS57S)       
1 57182U 23091S   26188.14926705  .00007869  00000+0  28720-3 0  9998
2 57182  97.5064 251.7181 0011856  37.5552 322.6514 15.28351604167348
MONITOR-2 (RS39S)       
1 57184U 23091U   26188.20682529  .00003465  00000+0  16812-3 0  9997
2 57184  97.5059 246.3613 0012130  49.7841 310.4452 15.19105902166990
SVYATOBOR 1 (RS60S)     
1 57187U 23091X   26188.11437176  .00006992  00000+0  26659-3 0  9994
2 57187  97.5076 252.0447 0009580  32.3071 327.8752 15.26972400167358
HORS 1                  
1 57188U 23091Y   26188.16399561  .00006675  00000+0  25376-3 0  9998
2 57188  97.5052 251.8545 0009042  32.4196 327.7597 15.27087980167369
VIZARD-METEO (RS38S)    
1 57189U 23091Z   26188.14311267  .00013231  00000+0  37102-3 0  9990
2 57189  97.5078 258.0359 0006461  11.5125 348.6265 15.36696631167758
SITRO-AIS 6 (CHIRKIN)   
1 57192U 23091AC  26188.11235896  .00007846  00000+0  30430-3 0  9996
2 57192  97.5053 251.2183 0012005  43.7593 316.4595 15.26335279167321
SITRO-AIS 8 (ANOKHIN)   
1 57193U 23091AD  26188.19932119  .00010881  00000+0  34631-3 0  9997
2 57193  97.5043 253.9653 0010345  35.9517 324.2418 15.32711925167511
SITRO-AIS 7 (FARTUSHNIY)
1 57194U 23091AE  26188.11963742  .00007946  00000+0  31113-3 0  9996
2 57194  97.5050 251.0402 0011940  44.8521 315.3680 15.26013248167313
AVION KALUGA 650        
1 57195U 23091AF  26188.16893519  .00004480  00000+0  20743-3 0  9993
2 57195  97.5076 247.6658 0011184  48.4298 311.7894 15.20576289167069
HORS 2                  
1 57196U 23091AG  26188.14914799  .00010113  00000+0  32522-3 0  9994
2 57196  97.5075 255.4564 0007717  24.3536 335.8068 15.32423756167587
A-SEANSAT-PG1           
1 57197U 23091AH  26188.18947808  .00013154  00000+0  35731-3 0  9999
2 57197  97.5066 258.2061 0006488  19.9061 340.2435 15.37689971167786
SITRO-AIS 10 (BURDAEV)  
1 57199U 23091AK  26188.14536963  .00015865  00000+0  40703-3 0  9999
2 57199  97.5067 259.1741 0005639  13.8654 346.2745 15.39411003167839
